{
    "links": {
        "self": "http://www.neowsapp.com/rest/v1/neo/3760084?api_key=iIulBulltgU6a56xZRHN4H3l9WmuAYTsLGpBGhQ2"
    },
    "id": "3760084",
    "neo_reference_id": "3760084",
    "name": "(2016 TF)",
    "designation": "2016 TF",
    "nasa_jpl_url": "http://ssd.jpl.nasa.gov/sbdb.cgi?sstr=3760084",
    "absolute_magnitude_h": 25.7,
    "estimated_diameter": {
        "kilometers": {
            "estimated_diameter_min": 0.0192555078,
            "estimated_diameter_max": 0.0430566244
        },
        "meters": {
            "estimated_diameter_min": 19.2555078188,
            "estimated_diameter_max": 43.0566244241
        },
        "miles": {
            "estimated_diameter_min": 0.0119648141,
            "estimated_diameter_max": 0.0267541378
        },
        "feet": {
            "estimated_diameter_min": 63.1742402722,
            "estimated_diameter_max": 141.2618956756
        }
    },
    "is_potentially_hazardous_asteroid": false,
    "close_approach_data": [
        {
            "close_approach_date": "2016-10-02",
            "close_approach_date_full": "2016-Oct-02 23:10",
            "epoch_date_close_approach": 1475449800000,
            "relative_velocity": {
                "kilometers_per_second": "11.576752089",
                "kilometers_per_hour": "41676.3075203726",
                "miles_per_hour": "25896.0367478671"
            },
            "miss_distance": {
                "astronomical": "0.0295178569",
                "lunar": "11.4824463341",
                "kilometers": "4415808.519204803",
                "miles": "2743856.1795321614"
            },
            "orbiting_body": "Earth"
        },
        {
            "close_approach_date": "2123-12-29",
            "close_approach_date_full": "2123-Dec-29 15:57",
            "epoch_date_close_approach": 4859539020000,
            "relative_velocity": {
                "kilometers_per_second": "15.5885719558",
                "kilometers_per_hour": "56118.8590407886",
                "miles_per_hour": "34870.0766078722"
            },
            "miss_distance": {
                "astronomical": "0.3634562946",
                "lunar": "141.3844985994",
                "kilometers": "54372287.510252502",
                "miles": "33785372.8103164476"
            },
            "orbiting_body": "Earth"
        },
        {
            "close_approach_date": "2128-09-10",
            "close_approach_date_full": "2128-Sep-10 00:05",
            "epoch_date_close_approach": 5007830700000,
            "relative_velocity": {
                "kilometers_per_second": "19.9788391129",
                "kilometers_per_hour": "71923.8208063392",
                "miles_per_hour": "44690.6652115834"
            },
            "miss_distance": {
                "astronomical": "0.3573394327",
                "lunar": "139.0050393203",
                "kilometers": "53457217.998928349",
                "miles": "33216774.9822112562"
            },
            "orbiting_body": "Earth"
        }
    ],
    "orbital_data": {
        "orbit_id": "7",
        "orbit_determination_date": "2018-02-10 07:08:16",
        "first_observation_date": "2016-09-25",
        "last_observation_date": "2016-10-05",
        "data_arc_in_days": 10,
        "observations_used": 77,
        "orbit_uncertainty": "7",
        "minimum_orbit_intersection": ".0282149",
        "jupiter_tisserand_invariant": "3.885",
        "epoch_osculation": "2459000.5",
        "eccentricity": ".4680973341566506",
        "semi_major_axis": "1.809062446102748",
        "inclination": "14.64349329761501",
        "ascending_node_longitude": "7.36922912688882",
        "orbital_period": "888.7482617583008",
        "perihelion_distance": ".9622451377591424",
        "perihelion_argument": "39.10706486494011",
        "aphelion_distance": "2.655879754446354",
        "perihelion_time": "2458583.491750652815",
        "mean_anomaly": "168.9150642815133",
        "mean_motion": ".4050640833747179",
        "equinox": "J2000",
        "orbit_class": {
            "orbit_class_type": "APO",
            "orbit_class_description": "Near-Earth asteroid orbits which cross the Earth’s orbit similar to that of 1862 Apollo",
            "orbit_class_range": "a (semi-major axis) > 1.0 AU; q (perihelion) < 1.017 AU"
        }
    },
    "is_sentry_object": false
}